start=new Date('2022-10-01T00:00:00.000Z').valueOf();
sats=[{"BSTAR":"-0.00007846600000","CENTER_NAME":"EARTH","SITE":"AFETR","FILE":"3587146","TIME_SYSTEM":"UTC","MEAN_MOTION_DOT":"-0.00001450","ARG_OF_PERICENTER":"85.3300","REF_FRAME":"TEME","REV_AT_EPOCH":"11789","MEAN_MOTION_DDOT":"0.0000000000000","ECCENTRICITY":"0.00012140","OBJECT_TYPE":"PAYLOAD","OBJECT_ID":"2020-057H","PERIOD":"95.592","EPHEMERIS_TYPE":"0","OBJECT_NAME":"STARLINK-1614","TLE_LINE1":"1 46124U 20057H   22273.09361185 -.00001450  00000-0 -78466-4 0  9997","EPOCH":"2022-09-30T02:14:48.063840","ELEMENT_SET_NO":"999","TLE_LINE2":"2 46124  53.0546 157.6880 0001214  85.3300 274.7828 15.06395138117899","RA_OF_ASC_NODE":"157.6880","COUNTRY_CODE":"US","MEAN_MOTION":"15.06395138","PERIAPSIS":"546.388","RCS_SIZE":"LARGE","GP_ID":"213840319","DECAY_DATE":null,"NORAD_CAT_ID":"46124","MEAN_ANOMALY":"274.7828","LAUNCH_DATE":"2020-08-18","MEAN_ELEMENT_THEORY":"SGP4","CLASSIFICATION_TYPE":"U","SEMIMAJOR_AXIS":"6925.363","APOAPSIS":"548.069","INCLINATION":"53.0546"},{"FILE":"3587966","SITE":"AFETR","MEAN_MOTION_DOT":"0.00000075","TIME_SYSTEM":"UTC","ARG_OF_PERICENTER":"100.0226","REF_FRAME":"TEME","REV_AT_EPOCH":"11803","BSTAR":"0.00002393800000","CENTER_NAME":"EARTH","OBJECT_NAME":"STARLINK-1618","TLE_LINE1":"1 46125U 20057J   22273.80498730  .00000075  00000-0  23938-4 0  9998","EPOCH":"2022-09-30T19:19:10.902720","ELEMENT_SET_NO":"999","TLE_LINE2":"2 46125  53.0535 194.5155 0001139 100.0226 260.0892 15.06416375118034","ECCENTRICITY":"0.00011390","MEAN_MOTION_DDOT":"0.0000000000000","PERIOD":"95.591","OBJECT_ID":"2020-057J","OBJECT_TYPE":"PAYLOAD","EPHEMERIS_TYPE":"0","MEAN_MOTION":"15.06416375","PERIAPSIS":"546.375","RCS_SIZE":"LARGE","DECAY_DATE":null,"GP_ID":"213902958","RA_OF_ASC_NODE":"194.5155","COUNTRY_CODE":"US","SEMIMAJOR_AXIS":"6925.298","INCLINATION":"53.0535","APOAPSIS":"547.952","NORAD_CAT_ID":"46125","MEAN_ANOMALY":"260.0892","CLASSIFICATION_TYPE":"U","MEAN_ELEMENT_THEORY":"SGP4","LAUNCH_DATE":"2020-08-18"},{"MEAN_MOTION_DDOT":"0.0000000000000","ECCENTRICITY":"0.00012910","EPHEMERIS_TYPE":"0","OBJECT_TYPE":"PAYLOAD","OBJECT_ID":"2020-057K","PERIOD":"95.592","TLE_LINE1":"1 46126U 20057K   22273.51380145  .00002870  00000-0  21144-3 0  9998","OBJECT_NAME":"STARLINK-1619","TLE_LINE2":"2 46126  53.0550 195.8228 0001291  94.9003 265.2133 15.06403832116734","ELEMENT_SET_NO":"999","EPOCH":"2022-09-30T12:19:52.445280","BSTAR":"0.00021144000000","CENTER_NAME":"EARTH","MEAN_MOTION_DOT":"0.00002870","TIME_SYSTEM":"UTC","SITE":"AFETR","FILE":"3587752","REV_AT_EPOCH":"11673","ARG_OF_PERICENTER":"94.9003","REF_FRAME":"TEME","NORAD_CAT_ID":"46126","MEAN_ELEMENT_THEORY":"SGP4","LAUNCH_DATE":"2020-08-18","CLASSIFICATION_TYPE":"U","MEAN_ANOMALY":"265.2133","APOAPSIS":"548.096","INCLINATION":"53.0550","SEMIMAJOR_AXIS":"6925.337","RA_OF_ASC_NODE":"195.8228","COUNTRY_CODE":"US","PERIAPSIS":"546.308","MEAN_MOTION":"15.06403832","GP_ID":"213873639","DECAY_DATE":null,"RCS_SIZE":"LARGE"},{"NORAD_CAT_ID":"46127","MEAN_ANOMALY":"294.1354","CLASSIFICATION_TYPE":"U","MEAN_ELEMENT_THEORY":"SGP4","LAUNCH_DATE":"2020-08-18","SEMIMAJOR_AXIS":"6925.350","APOAPSIS":"548.111","INCLINATION":"53.0550","RA_OF_ASC_NODE":"174.9545","COUNTRY_CODE":"US","MEAN_MOTION":"15.06399423","PERIAPSIS":"546.319","RCS_SIZE":"LARGE","DECAY_DATE":null,"GP_ID":"213903438","ECCENTRICITY":"0.00012940","MEAN_MOTION_DDOT":"0.0000000000000","OBJECT_ID":"2020-057L","PERIOD":"95.592","OBJECT_TYPE":"PAYLOAD","EPHEMERIS_TYPE":"0","TLE_LINE1":"1 46127U 20057L   22273.70363723  .00001268  00000-0  10402-3 0  9998","OBJECT_NAME":"STARLINK-1621","EPOCH":"2022-09-30T16:53:14.256672","TLE_LINE2":"2 46127  53.0550 174.9545 0001294  65.9770 294.1354 15.06399423117037","ELEMENT_SET_NO":"999","BSTAR":"0.00010402000000","CENTER_NAME":"EARTH","FILE":"3587966","SITE":"AFETR","MEAN_MOTION_DOT":"0.00001268","TIME_SYSTEM":"UTC","ARG_OF_PERICENTER":"65.9770","REF_FRAME":"TEME","REV_AT_EPOCH":"11703"},{"MEAN_ANOMALY":"253.8828","CLASSIFICATION_TYPE":"U","LAUNCH_DATE":"2020-08-18","MEAN_ELEMENT_THEORY":"SGP4","NORAD_CAT_ID":"46128","SEMIMAJOR_AXIS":"6925.330","INCLINATION":"53.0539","APOAPSIS":"548.175","COUNTRY_CODE":"US","RA_OF_ASC_NODE":"154.2286","RCS_SIZE":"LARGE","DECAY_DATE":null,"GP_ID":"213902210","MEAN_MOTION":"15.06405932","PERIAPSIS":"546.215","OBJECT_ID":"2020-057M","PERIOD":"95.592","OBJECT_TYPE":"PAYLOAD","EPHEMERIS_TYPE":"0","ECCENTRICITY":"0.00014150","MEAN_MOTION_DDOT":"0.0000000000000","EPOCH":"2022-09-30T20:44:06.454176","TLE_LINE2":"2 46128  53.0539 154.2286 0001415 106.2317 253.8828 15.06405932117344","ELEMENT_SET_NO":"999","TLE_LINE1":"1 46128U 20057M   22273.86396359  .00005093  00000-0  36049-3 0  9992","OBJECT_NAME":"STARLINK-1622","CENTER_NAME":"EARTH","BSTAR":"0.00036049000000","REF_FRAME":"TEME","ARG_OF_PERICENTER":"106.2317","REV_AT_EPOCH":"11734","FILE":"3587966","SITE":"AFETR","TIME_SYSTEM":"UTC","MEAN_MOTION_DOT":"0.00005093"},{"NORAD_CAT_ID":"46129","LAUNCH_DATE":"2020-08-18","MEAN_ELEMENT_THEORY":"SGP4","CLASSIFICATION_TYPE":"U","MEAN_ANOMALY":"258.8855","INCLINATION":"53.0533","APOAPSIS":"548.163","SEMIMAJOR_AXIS":"6925.368","RA_OF_ASC_NODE":"154.9544","COUNTRY_CODE":"US","PERIAPSIS":"546.304","MEAN_MOTION":"15.06393580","GP_ID":"213902460","DECAY_DATE":null,"RCS_SIZE":"LARGE","MEAN_MOTION_DDOT":"0.0000000000000","ECCENTRICITY":"0.00013420","EPHEMERIS_TYPE":"0","OBJECT_TYPE":"PAYLOAD","PERIOD":"95.593","OBJECT_ID":"2020-057N","TLE_LINE1":"1 46129U 20057N   22273.70547722  .00000456  00000-0  49528-4 0  9993","OBJECT_NAME":"STARLINK-1623","ELEMENT_SET_NO":"999","TLE_LINE2":"2 46129  53.0533 154.9544 0001342 101.2285 258.8855 15.06393580117329","EPOCH":"2022-09-30T16:55:53.231808","BSTAR":"0.00004952800000","CENTER_NAME":"EARTH","TIME_SYSTEM":"UTC","MEAN_MOTION_DOT":"0.00000456","SITE":"AFETR","FILE":"3587966","REV_AT_EPOCH":"11732","ARG_OF_PERICENTER":"101.2285","REF_FRAME":"TEME"},{"GP_ID":"213903709","DECAY_DATE":null,"RCS_SIZE":"LARGE","PERIAPSIS":"546.372","MEAN_MOTION":"15.06404291","COUNTRY_CODE":"US","RA_OF_ASC_NODE":"154.2010","APOAPSIS":"548.029","INCLINATION":"53.0545","SEMIMAJOR_AXIS":"6925.335","MEAN_ELEMENT_THEORY":"SGP4","LAUNCH_DATE":"2020-08-18","CLASSIFICATION_TYPE":"U","MEAN_ANOMALY":"279.4935","NORAD_CAT_ID":"46130","REV_AT_EPOCH":"11859","REF_FRAME":"TEME","ARG_OF_PERICENTER":"80.6189","TIME_SYSTEM":"UTC","MEAN_MOTION_DOT":"0.00001085","SITE":"AFETR","FILE":"3587966","CENTER_NAME":"EARTH","BSTAR":"0.00009168500000","ELEMENT_SET_NO":"999","TLE_LINE2":"2 46130  53.0545 154.2010 0001196  80.6189 279.4935 15.06404291118595","EPOCH":"2022-09-30T20:54:42.418656","OBJECT_NAME":"STARLINK-1624","TLE_LINE1":"1 46130U 20057P   22273.87132429  .00001085  00000-0  91685-4 0  9997","EPHEMERIS_TYPE":"0","OBJECT_TYPE":"PAYLOAD","PERIOD":"95.592","OBJECT_ID":"2020-057P","MEAN_MOTION_DDOT":"0.0000000000000","ECCENTRICITY":"0.00011960"},{"ARG_OF_PERICENTER":"87.6211","REF_FRAME":"TEME","REV_AT_EPOCH":"11831","FILE":"3587966","SITE":"AFETR","TIME_SYSTEM":"UTC","MEAN_MOTION_DOT":"0.00002855","CENTER_NAME":"EARTH","BSTAR":"0.00021053000000","EPOCH":"2022-09-30T19:37:45.836832","ELEMENT_SET_NO":"999","TLE_LINE2":"2 46131  53.0538 174.4355 0001343  87.6211 272.4932 15.06392918118313","TLE_LINE1":"1 46131U 20057Q   22273.81789163  .00002855  00000-0  21053-3 0  9992","OBJECT_NAME":"STARLINK-1625","OBJECT_ID":"2020-057Q","PERIOD":"95.593","OBJECT_TYPE":"PAYLOAD","EPHEMERIS_TYPE":"0","ECCENTRICITY":"0.00013430","MEAN_MOTION_DDOT":"0.0000000000000","RCS_SIZE":"LARGE","DECAY_DATE":null,"GP_ID":"213903937","MEAN_MOTION":"15.06392918","PERIAPSIS":"546.305","COUNTRY_CODE":"US","RA_OF_ASC_NODE":"174.4355","SEMIMAJOR_AXIS":"6925.370","INCLINATION":"53.0538","APOAPSIS":"548.165","MEAN_ANOMALY":"272.4932","CLASSIFICATION_TYPE":"U","LAUNCH_DATE":"2020-08-18","MEAN_ELEMENT_THEORY":"SGP4","NORAD_CAT_ID":"46131"},{"CENTER_NAME":"EARTH","BSTAR":"0.00024508000000","REF_FRAME":"TEME","ARG_OF_PERICENTER":"87.5432","REV_AT_EPOCH":"11803","FILE":"3587966","SITE":"AFETR","MEAN_MOTION_DOT":"0.00003371","TIME_SYSTEM":"UTC","PERIOD":"95.592","OBJECT_ID":"2020-057R","OBJECT_TYPE":"PAYLOAD","EPHEMERIS_TYPE":"0","ECCENTRICITY":"0.00014820","MEAN_MOTION_DDOT":"0.0000000000000","EPOCH":"2022-09-30T18:57:57.356352","ELEMENT_SET_NO":"999","TLE_LINE2":"2 46132  53.0537 194.5816 0001482  87.5432 272.5727 15.06402943118038","TLE_LINE1":"1 46132U 20057R   22273.79024718  .00003371  00000-0  24508-3 0  9990","OBJECT_NAME":"STARLINK-1630","COUNTRY_CODE":"US","RA_OF_ASC_NODE":"194.5816","RCS_SIZE":"LARGE","DECAY_DATE":null,"GP_ID":"213902710","MEAN_MOTION":"15.06402943","PERIAPSIS":"546.178","MEAN_ANOMALY":"272.5727","CLASSIFICATION_TYPE":"U","MEAN_ELEMENT_THEORY":"SGP4","LAUNCH_DATE":"2020-08-18","NORAD_CAT_ID":"46132","SEMIMAJOR_AXIS":"6925.340","INCLINATION":"53.0537","APOAPSIS":"548.231"},{"RCS_SIZE":"LARGE","GP_ID":"213902959","DECAY_DATE":null,"MEAN_MOTION":"15.06400448","PERIAPSIS":"546.342","COUNTRY_CODE":"US","RA_OF_ASC_NODE":"154.2832","SEMIMAJOR_AXIS":"6925.347","INCLINATION":"53.0572","APOAPSIS":"548.083","MEAN_ANOMALY":"250.1260","MEAN_ELEMENT_THEORY":"SGP4","LAUNCH_DATE":"2020-08-18","CLASSIFICATION_TYPE":"U","NORAD_CAT_ID":"46133","ARG_OF_PERICENTER":"109.9865","REF_FRAME":"TEME","REV_AT_EPOCH":"11859","SITE":"AFETR","FILE":"3587966","MEAN_MOTION_DOT":"0.00001398","TIME_SYSTEM":"UTC","CENTER_NAME":"EARTH","BSTAR":"0.00011270000000","EPOCH":"2022-09-30T20:33:29.051136","ELEMENT_SET_NO":"999","TLE_LINE2":"2 46133  53.0572 154.2832 0001257 109.9865 250.1260 15.06400448118591","OBJECT_NAME":"STARLINK-1637","TLE_LINE1":"1 46133U 20057S   22273.85658624  .00001398  00000-0  11270-3 0  9996","OBJECT_TYPE":"PAYLOAD","OBJECT_ID":"2020-057S","PERIOD":"95.592","EPHEMERIS_TYPE":"0","MEAN_MOTION_DDOT":"0.0000000000000","ECCENTRICITY":"0.00012570"}];
